GLOBALSTAR M078         
1 39076U 13005E   26062.49112196 -.00000100  00000+0  21041-4 0  9996
2 39076  51.9853 245.4864 0001499  61.9026 298.1992 12.62275926602660
GLOBALSTAR M095         
1 39077U 13005F   26062.43855295 -.00000097  00000+0  36284-4 0  9995
2 39077  52.0060 243.1014 0001360  85.3226 274.7796 12.62276192602516
GLOBALSTAR M087         
1 52888U 22064A   26062.05596850 -.00000106  00000+0 -97079-5 0  9994
2 52888  52.0018  25.5635 0000660  84.9139 275.1803 12.62266769177739
