[{"OBJECT_NAME":"GLOBALSTAR M078","OBJECT_ID":"2013-005E","EPOCH":"2026-03-03T11:47:12.937344","MEAN_MOTION":12.62275926,"ECCENTRICITY":0.0001499,"INCLINATION":51.9853,"RA_OF_ASC_NODE":245.4864,"ARG_OF_PERICENTER":61.9026,"MEAN_ANOMALY":298.1992,"EPHEMERIS_TYPE":0,"CLASSIFICATION_TYPE":"U","NORAD_CAT_ID":39076,"ELEMENT_SET_NO":999,"REV_AT_EPOCH":60266,"BSTAR":2.1041e-5,"MEAN_MOTION_DOT":-1.0e-6,"MEAN_MOTION_DDOT":0},{"OBJECT_NAME":"GLOBALSTAR M095","OBJECT_ID":"2013-005F","EPOCH":"2026-03-03T10:31:30.974880","MEAN_MOTION":12.62276192,"ECCENTRICITY":0.000136,"INCLINATION":52.006,"RA_OF_ASC_NODE":243.1014,"ARG_OF_PERICENTER":85.3226,"MEAN_ANOMALY":274.7796,"EPHEMERIS_TYPE":0,"CLASSIFICATION_TYPE":"U","NORAD_CAT_ID":39077,"ELEMENT_SET_NO":999,"REV_AT_EPOCH":60251,"BSTAR":3.6284e-5,"MEAN_MOTION_DOT":-9.7e-7,"MEAN_MOTION_DDOT":0},{"OBJECT_NAME":"GLOBALSTAR M087","OBJECT_ID":"2022-064A","EPOCH":"2026-03-03T01:20:35.678400","MEAN_MOTION":12.62266769,"ECCENTRICITY":6.6e-5,"INCLINATION":52.0018,"RA_OF_ASC_NODE":25.5635,"ARG_OF_PERICENTER":84.9139,"MEAN_ANOMALY":275.1803,"EPHEMERIS_TYPE":0,"CLASSIFICATION_TYPE":"U","NORAD_CAT_ID":52888,"ELEMENT_SET_NO":999,"REV_AT_EPOCH":17773,"BSTAR":-9.7079e-6,"MEAN_MOTION_DOT":-1.06e-6,"MEAN_MOTION_DDOT":0}]
